start=new Date('2022-05-13T00:00:00.000Z').valueOf();
sats=[{"REV_AT_EPOCH":"130","EPOCH":"2022-05-12T22:00:00.999936","TLE_LINE2":"2 50177  53.2188  39.4824 0002290  37.6643  82.2500 15.08849040  1301","LAUNCH_DATE":"2021-12-18","REF_FRAME":"TEME","FILE":"3442534","ARG_OF_PERICENTER":"37.6643","EPHEMERIS_TYPE":"0","MEAN_MOTION":"15.08849040","OBJECT_ID":"2021-125X","INCLINATION":"53.2188","COUNTRY_CODE":"US","MEAN_ELEMENT_THEORY":"SGP4","RCS_SIZE":"LARGE","MEAN_MOTION_DOT":"-0.00024175","CENTER_NAME":"EARTH","MEAN_MOTION_DDOT":"0.0000000000000","DECAY_DATE":null,"PERIAPSIS":"538.134","OBJECT_TYPE":"PAYLOAD","OBJECT_NAME":"STARLINK-3282","SEMIMAJOR_AXIS":"6917.853","GP_ID":"203393349","ELEMENT_SET_NO":"999","RA_OF_ASC_NODE":"39.4824","SITE":"AFWTR","APOAPSIS":"541.302","NORAD_CAT_ID":"50177","TIME_SYSTEM":"UTC","MEAN_ANOMALY":"82.2500","PERIOD":"95.437","CLASSIFICATION_TYPE":"U","ECCENTRICITY":"0.00022900","BSTAR":"-0.00150550000000","TLE_LINE1":"1 50177U 21125X   22132.91667824 -.00024175  00000-0 -15055-2 0  9993"},{"PERIOD":"95.436","ECCENTRICITY":"0.00019730","CLASSIFICATION_TYPE":"U","TIME_SYSTEM":"UTC","MEAN_ANOMALY":"294.4916","TLE_LINE1":"1 50178U 21125Y   22132.91667824 -.00014837  00000-0 -91544-3 0  9996","BSTAR":"-0.00091544000000","GP_ID":"203393600","SEMIMAJOR_AXIS":"6917.810","OBJECT_TYPE":"PAYLOAD","OBJECT_NAME":"STARLINK-3284","SITE":"AFWTR","APOAPSIS":"541.040","NORAD_CAT_ID":"50178","ELEMENT_SET_NO":"999","RA_OF_ASC_NODE":"39.4770","OBJECT_ID":"2021-125Y","INCLINATION":"53.2164","COUNTRY_CODE":"US","MEAN_ELEMENT_THEORY":"SGP4","RCS_SIZE":"LARGE","ARG_OF_PERICENTER":"45.4167","EPHEMERIS_TYPE":"0","MEAN_MOTION":"15.08862884","DECAY_DATE":null,"PERIAPSIS":"538.311","MEAN_MOTION_DOT":"-0.00014837","CENTER_NAME":"EARTH","MEAN_MOTION_DDOT":"0.0000000000000","TLE_LINE2":"2 50178  53.2164  39.4770 0001973  45.4167 294.4916 15.08862884  1300","REV_AT_EPOCH":"130","EPOCH":"2022-05-12T22:00:00.999936","REF_FRAME":"TEME","FILE":"3442534","LAUNCH_DATE":"2021-12-18"},{"CENTER_NAME":"EARTH","MEAN_MOTION_DOT":"-0.00045597","MEAN_MOTION_DDOT":"0.0000000000000","DECAY_DATE":null,"PERIAPSIS":"538.165","EPHEMERIS_TYPE":"0","ARG_OF_PERICENTER":"40.0781","MEAN_MOTION":"15.08861292","COUNTRY_CODE":"US","OBJECT_ID":"2021-125Z","INCLINATION":"53.2202","RCS_SIZE":"LARGE","MEAN_ELEMENT_THEORY":"SGP4","LAUNCH_DATE":"2021-12-18","REF_FRAME":"TEME","FILE":"3442534","REV_AT_EPOCH":"130","EPOCH":"2022-05-12T22:00:00.999936","TLE_LINE2":"2 50179  53.2202  39.4788 0002190  40.0781 119.7964 15.08861292  1302","BSTAR":"-0.00286330000000","TLE_LINE1":"1 50179U 21125Z   22132.91667824 -.00045597  00000-0 -28633-2 0  9992","TIME_SYSTEM":"UTC","MEAN_ANOMALY":"119.7964","CLASSIFICATION_TYPE":"U","ECCENTRICITY":"0.00021900","PERIOD":"95.436","RA_OF_ASC_NODE":"39.4788","ELEMENT_SET_NO":"999","SITE":"AFWTR","NORAD_CAT_ID":"50179","APOAPSIS":"541.195","OBJECT_TYPE":"PAYLOAD","OBJECT_NAME":"STARLINK-3283","SEMIMAJOR_AXIS":"6917.815","GP_ID":"203394351"},{"PERIOD":"95.436","CLASSIFICATION_TYPE":"U","ECCENTRICITY":"0.00023370","TIME_SYSTEM":"UTC","MEAN_ANOMALY":"199.5357","TLE_LINE1":"1 50180U 21125AA  22132.91667824 -.00008586  00000-0 -52167-3 0  9991","BSTAR":"-0.00052167000000","GP_ID":"203392599","SEMIMAJOR_AXIS":"6917.820","OBJECT_NAME":"STARLINK-3265","OBJECT_TYPE":"PAYLOAD","SITE":"AFWTR","APOAPSIS":"541.302","NORAD_CAT_ID":"50180","ELEMENT_SET_NO":"999","RA_OF_ASC_NODE":"39.4776","OBJECT_ID":"2021-125AA","INCLINATION":"53.2201","COUNTRY_CODE":"US","MEAN_ELEMENT_THEORY":"SGP4","RCS_SIZE":"LARGE","ARG_OF_PERICENTER":"40.3415","EPHEMERIS_TYPE":"0","MEAN_MOTION":"15.08859696","DECAY_DATE":null,"PERIAPSIS":"538.068","MEAN_MOTION_DOT":"-0.00008586","CENTER_NAME":"EARTH","MEAN_MOTION_DDOT":"0.0000000000000","TLE_LINE2":"2 50180  53.2201  39.4776 0002337  40.3415 199.5357 15.08859696  1307","REV_AT_EPOCH":"130","EPOCH":"2022-05-12T22:00:00.999936","REF_FRAME":"TEME","FILE":"3442534","LAUNCH_DATE":"2021-12-18"},{"LAUNCH_DATE":"2021-12-18","FILE":"3442534","REF_FRAME":"TEME","EPOCH":"2022-05-12T22:00:00.999936","REV_AT_EPOCH":"130","TLE_LINE2":"2 50181  53.2181  39.4679 0002029  38.0523 241.8337 15.08857404  1303","MEAN_MOTION_DDOT":"0.0000000000000","MEAN_MOTION_DOT":"-0.00011858","CENTER_NAME":"EARTH","PERIAPSIS":"538.289","DECAY_DATE":null,"MEAN_MOTION":"15.08857404","EPHEMERIS_TYPE":"0","ARG_OF_PERICENTER":"38.0523","RCS_SIZE":"LARGE","MEAN_ELEMENT_THEORY":"SGP4","COUNTRY_CODE":"US","OBJECT_ID":"2021-125AB","INCLINATION":"53.2181","RA_OF_ASC_NODE":"39.4679","ELEMENT_SET_NO":"999","NORAD_CAT_ID":"50181","APOAPSIS":"541.096","SITE":"AFWTR","OBJECT_TYPE":"PAYLOAD","OBJECT_NAME":"STARLINK-3285","SEMIMAJOR_AXIS":"6917.827","GP_ID":"203392849","BSTAR":"-0.00072779000000","TLE_LINE1":"1 50181U 21125AB  22132.91667824 -.00011858  00000-0 -72779-3 0  9999","TIME_SYSTEM":"UTC","MEAN_ANOMALY":"241.8337","CLASSIFICATION_TYPE":"U","ECCENTRICITY":"0.00020290","PERIOD":"95.436"},{"REF_FRAME":"TEME","FILE":"3442534","LAUNCH_DATE":"2021-12-18","TLE_LINE2":"2 50182  53.2184  39.4681 0002166  39.9980 279.9090 15.08837955  1306","REV_AT_EPOCH":"130","EPOCH":"2022-05-12T22:00:00.999936","DECAY_DATE":null,"PERIAPSIS":"538.253","CENTER_NAME":"EARTH","MEAN_MOTION_DOT":"-0.00018111","MEAN_MOTION_DDOT":"0.0000000000000","COUNTRY_CODE":"US","INCLINATION":"53.2184","OBJECT_ID":"2021-125AC","RCS_SIZE":"LARGE","MEAN_ELEMENT_THEORY":"SGP4","EPHEMERIS_TYPE":"0","ARG_OF_PERICENTER":"39.9980","MEAN_MOTION":"15.08837955","SITE":"AFWTR","NORAD_CAT_ID":"50182","APOAPSIS":"541.250","RA_OF_ASC_NODE":"39.4681","ELEMENT_SET_NO":"999","GP_ID":"203394101","SEMIMAJOR_AXIS":"6917.887","OBJECT_NAME":"STARLINK-3277","OBJECT_TYPE":"PAYLOAD","TLE_LINE1":"1 50182U 21125AC  22132.91667824 -.00018111  00000-0 -11227-2 0  9999","BSTAR":"-0.00112270000000","CLASSIFICATION_TYPE":"U","ECCENTRICITY":"0.00021660","PERIOD":"95.438","TIME_SYSTEM":"UTC","MEAN_ANOMALY":"279.9090"},{"EPOCH":"2022-05-12T22:00:00.999936","REV_AT_EPOCH":"130","TLE_LINE2":"2 50183  53.2192  39.4734 0002508  35.2659 264.6112 15.08856937  1304","LAUNCH_DATE":"2021-12-18","FILE":"3442534","REF_FRAME":"TEME","MEAN_MOTION":"15.08856937","EPHEMERIS_TYPE":"0","ARG_OF_PERICENTER":"35.2659","RCS_SIZE":"LARGE","MEAN_ELEMENT_THEORY":"SGP4","COUNTRY_CODE":"US","OBJECT_ID":"2021-125AD","INCLINATION":"53.2192","MEAN_MOTION_DDOT":"0.0000000000000","MEAN_MOTION_DOT":"-0.00011791","CENTER_NAME":"EARTH","PERIAPSIS":"537.959","DECAY_DATE":null,"OBJECT_NAME":"STARLINK-3281","OBJECT_TYPE":"PAYLOAD","GP_ID":"203393851","SEMIMAJOR_AXIS":"6917.829","RA_OF_ASC_NODE":"39.4734","ELEMENT_SET_NO":"999","NORAD_CAT_ID":"50183","APOAPSIS":"541.429","SITE":"AFWTR","MEAN_ANOMALY":"264.6112","TIME_SYSTEM":"UTC","CLASSIFICATION_TYPE":"U","ECCENTRICITY":"0.00025080","PERIOD":"95.436","BSTAR":"-0.00072353000000","TLE_LINE1":"1 50183U 21125AD  22132.91667824 -.00011791  00000-0 -72353-3 0  9995"},{"TLE_LINE1":"1 50185U 21125AF  22132.91667824 -.00011765  00000-0 -72189-3 0  9995","BSTAR":"-0.00072189000000","PERIOD":"95.436","CLASSIFICATION_TYPE":"U","ECCENTRICITY":"0.00022310","TIME_SYSTEM":"UTC","MEAN_ANOMALY":"217.6208","APOAPSIS":"541.237","NORAD_CAT_ID":"50185","SITE":"AFWTR","ELEMENT_SET_NO":"999","RA_OF_ASC_NODE":"39.4767","SEMIMAJOR_AXIS":"6917.828","GP_ID":"203393100","OBJECT_NAME":"STARLINK-3279","OBJECT_TYPE":"PAYLOAD","PERIAPSIS":"538.150","DECAY_DATE":null,"MEAN_MOTION_DDOT":"0.0000000000000","MEAN_MOTION_DOT":"-0.00011765","CENTER_NAME":"EARTH","MEAN_ELEMENT_THEORY":"SGP4","RCS_SIZE":"LARGE","INCLINATION":"53.2199","OBJECT_ID":"2021-125AF","COUNTRY_CODE":"US","MEAN_MOTION":"15.08857083","ARG_OF_PERICENTER":"42.2579","EPHEMERIS_TYPE":"0","FILE":"3442534","REF_FRAME":"TEME","LAUNCH_DATE":"2021-12-18","TLE_LINE2":"2 50185  53.2199  39.4767 0002231  42.2579 217.6208 15.08857083  1308","EPOCH":"2022-05-12T22:00:00.999936","REV_AT_EPOCH":"130"},{"CLASSIFICATION_TYPE":"U","ECCENTRICITY":"0.00022950","PERIOD":"95.436","MEAN_ANOMALY":"145.2762","TIME_SYSTEM":"UTC","TLE_LINE1":"1 50186U 21125AG  22132.91667824 -.00032541  00000-0 -20344-2 0  9996","BSTAR":"-0.00203440000000","SEMIMAJOR_AXIS":"6917.811","GP_ID":"203393350","OBJECT_NAME":"STARLINK-3274","OBJECT_TYPE":"PAYLOAD","SITE":"AFWTR","NORAD_CAT_ID":"50186","APOAPSIS":"541.263","RA_OF_ASC_NODE":"49.4663","ELEMENT_SET_NO":"999","COUNTRY_CODE":"US","INCLINATION":"53.2173","OBJECT_ID":"2021-125AG","RCS_SIZE":"LARGE","MEAN_ELEMENT_THEORY":"SGP4","EPHEMERIS_TYPE":"0","ARG_OF_PERICENTER":"39.5884","MEAN_MOTION":"15.08862821","DECAY_DATE":null,"PERIAPSIS":"538.088","MEAN_MOTION_DOT":"-0.00032541","CENTER_NAME":"EARTH","MEAN_MOTION_DDOT":"0.0000000000000","TLE_LINE2":"2 50186  53.2173  49.4663 0002295  39.5884 145.2762 15.08862821  1302","REV_AT_EPOCH":"130","EPOCH":"2022-05-12T22:00:00.999936","REF_FRAME":"TEME","FILE":"3442534","LAUNCH_DATE":"2021-12-18"},{"TIME_SYSTEM":"UTC","MEAN_ANOMALY":"343.6578","ECCENTRICITY":"0.00018300","CLASSIFICATION_TYPE":"U","PERIOD":"95.436","BSTAR":"-0.00104490000000","TLE_LINE1":"1 50187U 21125AH  22132.91667824 -.00016894  00000-0 -10449-2 0  9995","OBJECT_TYPE":"PAYLOAD","OBJECT_NAME":"STARLINK-3272","GP_ID":"203393601","SEMIMAJOR_AXIS":"6917.785","RA_OF_ASC_NODE":"29.4780","ELEMENT_SET_NO":"999","NORAD_CAT_ID":"50187","APOAPSIS":"540.916","SITE":"AFWTR","MEAN_MOTION":"15.08871055","EPHEMERIS_TYPE":"0","ARG_OF_PERICENTER":"51.0895","RCS_SIZE":"LARGE","MEAN_ELEMENT_THEORY":"SGP4","COUNTRY_CODE":"US","INCLINATION":"53.2166","OBJECT_ID":"2021-125AH","MEAN_MOTION_DDOT":"0.0000000000000","CENTER_NAME":"EARTH","MEAN_MOTION_DOT":"-0.00016894","PERIAPSIS":"538.385","DECAY_DATE":null,"EPOCH":"2022-05-12T22:00:00.999936","REV_AT_EPOCH":"130","TLE_LINE2":"2 50187  53.2166  29.4780 0001830  51.0895 343.6578 15.08871055  1306","LAUNCH_DATE":"2021-12-18","FILE":"3442534","REF_FRAME":"TEME"}];
